{
    "links": {
        "self": "http://www.neowsapp.com/rest/v1/neo/54016807?api_key=iIulBulltgU6a56xZRHN4H3l9WmuAYTsLGpBGhQ2"
    },
    "id": "54016807",
    "neo_reference_id": "54016807",
    "name": "(2020 HU7)",
    "designation": "2020 HU7",
    "nasa_jpl_url": "http://ssd.jpl.nasa.gov/sbdb.cgi?sstr=54016807",
    "absolute_magnitude_h": 29.632,
    "estimated_diameter": {
        "kilometers": {
            "estimated_diameter_min": 0.0031488718,
            "estimated_diameter_max": 0.0070410913
        },
        "meters": {
            "estimated_diameter_min": 3.1488717785,
            "estimated_diameter_max": 7.0410913492
        },
        "miles": {
            "estimated_diameter_min": 0.0019566176,
            "estimated_diameter_max": 0.00437513
        },
        "feet": {
            "estimated_diameter_min": 10.3309444859,
            "estimated_diameter_max": 23.1006941422
        }
    },
    "is_potentially_hazardous_asteroid": false,
    "close_approach_data": [
        {
            "close_approach_date": "2020-04-22",
            "close_approach_date_full": "2020-Apr-22 15:45",
            "epoch_date_close_approach": 1587570300000,
            "relative_velocity": {
                "kilometers_per_second": "11.2279092076",
                "kilometers_per_hour": "40420.4731472171",
                "miles_per_hour": "25115.7101063916"
            },
            "miss_distance": {
                "astronomical": "0.0032092588",
                "lunar": "1.2484016732",
                "kilometers": "480098.280758756",
                "miles": "298319.2384165928"
            },
            "orbiting_body": "Moon"
        },
        {
            "close_approach_date": "2020-04-22",
            "close_approach_date_full": "2020-Apr-22 20:19",
            "epoch_date_close_approach": 1587586740000,
            "relative_velocity": {
                "kilometers_per_second": "10.6675874445",
                "kilometers_per_hour": "38403.3148002533",
                "miles_per_hour": "23862.3263546352"
            },
            "miss_distance": {
                "astronomical": "0.0008685442",
                "lunar": "0.3378636938",
                "kilometers": "129932.362320854",
                "miles": "80736.2261576252"
            },
            "orbiting_body": "Earth"
        }
    ],
    "orbital_data": {
        "orbit_id": "1",
        "orbit_determination_date": "2020-04-28 07:10:13",
        "first_observation_date": "2020-04-23",
        "last_observation_date": "2020-04-24",
        "data_arc_in_days": 1,
        "observations_used": 11,
        "orbit_uncertainty": "7",
        "minimum_orbit_intersection": ".000761313",
        "jupiter_tisserand_invariant": "3.224",
        "epoch_osculation": "2459000.5",
        "eccentricity": ".5951930550637095",
        "semi_major_axis": "2.429158935415646",
        "inclination": "9.935731943001887",
        "ascending_node_longitude": "213.0093309131548",
        "orbital_period": "1382.873082197581",
        "perihelion_distance": ".9833404074102998",
        "perihelion_argument": "339.73826388762",
        "aphelion_distance": "3.874977463420993",
        "perihelion_time": "2458946.329890301528",
        "mean_anomaly": "14.10197345114256",
        "mean_motion": ".2603275778771463",
        "equinox": "J2000",
        "orbit_class": {
            "orbit_class_type": "APO",
            "orbit_class_description": "Near-Earth asteroid orbits which cross the Earth’s orbit similar to that of 1862 Apollo",
            "orbit_class_range": "a (semi-major axis) > 1.0 AU; q (perihelion) < 1.017 AU"
        }
    },
    "is_sentry_object": false
}